XRISM                   
1 57800U 23137A   24161.11616468  .00008076  00000+0  60894-3 0  9993
2 57800  31.0042  63.9881 0009269 129.1921 230.9539 15.01130352 41397
